KUIPER-00096            
1 65135U 25171D   26198.80742104  .00000512  00000+0  96109-4 0  9994
2 65135  51.9007 302.6920 0000376 110.1977 249.9026 14.79930326 52168
KUIPER-00097            
1 65136U 25171E   26199.00733533  .00001081  00000+0  17073-3 0  9998
2 65136  51.9032 304.4652 0000475 109.2325 250.8689 14.79928652 52148
KUIPER-00098            
1 65137U 25171F   26199.27473741  .00001480  00000+0  22303-3 0  9995
2 65137  51.9019 305.6477 0000406 102.0996 258.0012 14.79934457 51500
KUIPER-00099            
1 65138U 25171G   26199.31924957 -.00004544  00000+0 -56732-3 0  9990
2 65138  51.9031 295.4562 0000819  89.1155 270.9902 14.79942416 52300
KUIPER-00100            
1 65139U 25171H   26199.28821746  .00001473  00000+0  22220-3 0  9990
2 65139  51.9023 293.0633 0000389 106.4850 253.6156 14.79932428 52336
KUIPER-00102            
1 65140U 25171J   26198.67774919  .00001458  00000+0  22019-3 0  9992
2 65140  51.8994 298.2493 0000391  69.0823 291.0181 14.79926563 52205
KUIPER-00103            
1 65141U 25171K   26199.30040752  .00001550  00000+0  23229-3 0  9992
2 65141  51.9003 312.9943 0000400 113.1975 246.9029 14.79934193 52053
KUIPER-00104            
1 65142U 25171L   26199.31389491 -.00000054  00000+0  21883-4 0  9994
2 65142  51.9032 300.4369 0000392  71.5550 288.5455 14.79930595 52233
KUIPER-00105            
1 65143U 25171M   26199.27203888  .00001622  00000+0  24167-3 0  9993
2 65143  51.9018 308.2216 0000390 116.1984 243.9019 14.79942386 52120
KUIPER-00106            
1 65144U 25171N   26199.25277028  .00000088  00000+0  40511-4 0  9996
2 65144  51.9028 287.0705 0000420 114.7956 245.3050 14.79930772 52426
KUIPER-00107            
1 65145U 25171P   26199.22339186  .00000552  00000+0  10145-3 0  9993
2 65145  51.9020 290.8783 0000340 102.0736 258.0264 14.79927952 52361
KUIPER-00108            
1 65146U 25171Q   26199.31120631  .00000472  00000+0  90859-4 0  9999
2 65146  51.9045 303.0264 0000572 127.9100 232.1914 14.79929929 52202
KUIPER-00109            
1 65147U 25171R   26198.67505323  .00001392  00000+0  21152-3 0  9994
2 65147  51.9033 300.7823 0000392 124.4322 235.6678 14.79936729 52170
KUIPER-00110            
1 65148U 25171S   26199.30312030  .00001552  00000+0  23259-3 0  9995
2 65148  51.9011 310.5632 0000451 113.2155 246.8855 14.79924963 52088
KUIPER-00111            
1 65149U 25171T   26198.72369533  .00001559  00000+0  23342-3 0  9991
2 65149  51.8991 318.0022 0000453 119.9633 240.1375 14.79939822 51934
KUIPER-00112            
1 65150U 25171U   26199.31660140  .00000147  00000+0  48232-4 0  9995
2 65150  51.9019 297.9946 0000157 108.7645 251.3334 14.79929314 52269
