{"fetched_at":"2026-07-18T17:29:29.751Z","source":"https://celestrak.org/NORAD/elements/gp.php?GROUP=kuiper&FORMAT=JSON","constellation":"kuiper","records":[{"OBJECT_NAME":"KUIPER-00096","OBJECT_ID":"2025-171D","EPOCH":"2026-07-17T19:22:41.177856","CLASSIFICATION_TYPE":"U","MEAN_MOTION":14.79930326,"ECCENTRICITY":0.00003766,"INCLINATION":51.9007,"RA_OF_ASC_NODE":302.692,"ARG_OF_PERICENTER":110.1977,"MEAN_ANOMALY":249.9026,"EPHEMERIS_TYPE":0,"NORAD_CAT_ID":65135,"ELEMENT_SET_NO":999,"REV_AT_EPOCH":5216,"BSTAR":0.000096108898,"MEAN_MOTION_DOT":0.00000512,"MEAN_MOTION_DDOT":0},{"OBJECT_NAME":"KUIPER-00097","OBJECT_ID":"2025-171E","EPOCH":"2026-07-18T00:10:33.772512","CLASSIFICATION_TYPE":"U","MEAN_MOTION":14.79928652,"ECCENTRICITY":0.00004752,"INCLINATION":51.9032,"RA_OF_ASC_NODE":304.4652,"ARG_OF_PERICENTER":109.2325,"MEAN_ANOMALY":250.8689,"EPHEMERIS_TYPE":0,"NORAD_CAT_ID":65136,"ELEMENT_SET_NO":999,"REV_AT_EPOCH":5214,"BSTAR":0.00017072715,"MEAN_MOTION_DOT":0.00001081,"MEAN_MOTION_DDOT":0},{"OBJECT_NAME":"KUIPER-00098","OBJECT_ID":"2025-171F","EPOCH":"2026-07-18T06:35:37.312224","CLASSIFICATION_TYPE":"U","MEAN_MOTION":14.79934457,"ECCENTRICITY":0.00004065,"INCLINATION":51.9019,"RA_OF_ASC_NODE":305.6477,"ARG_OF_PERICENTER":102.0996,"MEAN_ANOMALY":258.0012,"EPHEMERIS_TYPE":0,"NORAD_CAT_ID":65137,"ELEMENT_SET_NO":999,"REV_AT_EPOCH":5150,"BSTAR":0.00022302766,"MEAN_MOTION_DOT":0.0000148,"MEAN_MOTION_DDOT":0},{"OBJECT_NAME":"KUIPER-00099","OBJECT_ID":"2025-171G","EPOCH":"2026-07-18T07:39:43.162848","CLASSIFICATION_TYPE":"U","MEAN_MOTION":14.79942416,"ECCENTRICITY":0.00008197,"INCLINATION":51.9031,"RA_OF_ASC_NODE":295.4562,"ARG_OF_PERICENTER":89.1155,"MEAN_ANOMALY":270.9902,"EPHEMERIS_TYPE":0,"NORAD_CAT_ID":65138,"ELEMENT_SET_NO":999,"REV_AT_EPOCH":5230,"BSTAR":-0.00056731686,"MEAN_MOTION_DOT":-0.00004544,"MEAN_MOTION_DDOT":0},{"OBJECT_NAME":"KUIPER-00100","OBJECT_ID":"2025-171H","EPOCH":"2026-07-18T06:55:01.988544","CLASSIFICATION_TYPE":"U","MEAN_MOTION":14.79932428,"ECCENTRICITY":0.00003898,"INCLINATION":51.9023,"RA_OF_ASC_NODE":293.0633,"ARG_OF_PERICENTER":106.485,"MEAN_ANOMALY":253.6156,"EPHEMERIS_TYPE":0,"NORAD_CAT_ID":65139,"ELEMENT_SET_NO":999,"REV_AT_EPOCH":5233,"BSTAR":0.00022219705,"MEAN_MOTION_DOT":0.00001473,"MEAN_MOTION_DDOT":0},{"OBJECT_NAME":"KUIPER-00102","OBJECT_ID":"2025-171J","EPOCH":"2026-07-17T16:15:57.530016","CLASSIFICATION_TYPE":"U","MEAN_MOTION":14.79926563,"ECCENTRICITY":0.00003915,"INCLINATION":51.8994,"RA_OF_ASC_NODE":298.2493,"ARG_OF_PERICENTER":69.0823,"MEAN_ANOMALY":291.0181,"EPHEMERIS_TYPE":0,"NORAD_CAT_ID":65140,"ELEMENT_SET_NO":999,"REV_AT_EPOCH":5220,"BSTAR":0.00022018832,"MEAN_MOTION_DOT":0.00001458,"MEAN_MOTION_DDOT":0},{"OBJECT_NAME":"KUIPER-00103","OBJECT_ID":"2025-171K","EPOCH":"2026-07-18T07:12:35.209728","CLASSIFICATION_TYPE":"U","MEAN_MOTION":14.79934193,"ECCENTRICITY":0.00004,"INCLINATION":51.9003,"RA_OF_ASC_NODE":312.9943,"ARG_OF_PERICENTER":113.1975,"MEAN_ANOMALY":246.9029,"EPHEMERIS_TYPE":0,"NORAD_CAT_ID":65141,"ELEMENT_SET_NO":999,"REV_AT_EPOCH":5205,"BSTAR":0.00023228516,"MEAN_MOTION_DOT":0.0000155,"MEAN_MOTION_DDOT":0},{"OBJECT_NAME":"KUIPER-00104","OBJECT_ID":"2025-171L","EPOCH":"2026-07-18T07:32:00.520224","CLASSIFICATION_TYPE":"U","MEAN_MOTION":14.79930595,"ECCENTRICITY":0.00003928,"INCLINATION":51.9032,"RA_OF_ASC_NODE":300.4369,"ARG_OF_PERICENTER":71.555,"MEAN_ANOMALY":288.5455,"EPHEMERIS_TYPE":0,"NORAD_CAT_ID":65142,"ELEMENT_SET_NO":999,"REV_AT_EPOCH":5223,"BSTAR":0.000021882924,"MEAN_MOTION_DOT":-5.4e-7,"MEAN_MOTION_DDOT":0},{"OBJECT_NAME":"KUIPER-00105","OBJECT_ID":"2025-171M","EPOCH":"2026-07-18T06:31:44.159232","CLASSIFICATION_TYPE":"U","MEAN_MOTION":14.79942386,"ECCENTRICITY":0.00003903,"INCLINATION":51.9018,"RA_OF_ASC_NODE":308.2216,"ARG_OF_PERICENTER":116.1984,"MEAN_ANOMALY":243.9019,"EPHEMERIS_TYPE":0,"NORAD_CAT_ID":65143,"ELEMENT_SET_NO":999,"REV_AT_EPOCH":5212,"BSTAR":0.00024166544,"MEAN_MOTION_DOT":0.00001622,"MEAN_MOTION_DDOT":0},{"OBJECT_NAME":"KUIPER-00106","OBJECT_ID":"2025-171N","EPOCH":"2026-07-18T06:03:59.352192","CLASSIFICATION_TYPE":"U","MEAN_MOTION":14.79930772,"ECCENTRICITY":0.00004207,"INCLINATION":51.9028,"RA_OF_ASC_NODE":287.0705,"ARG_OF_PERICENTER":114.7956,"MEAN_ANOMALY":245.305,"EPHEMERIS_TYPE":0,"NORAD_CAT_ID":65144,"ELEMENT_SET_NO":999,"REV_AT_EPOCH":5242,"BSTAR":0.000040511334,"MEAN_MOTION_DOT":8.8e-7,"MEAN_MOTION_DDOT":0},{"OBJECT_NAME":"KUIPER-00107","OBJECT_ID":"2025-171P","EPOCH":"2026-07-18T05:21:41.056704","CLASSIFICATION_TYPE":"U","MEAN_MOTION":14.79927952,"ECCENTRICITY":0.00003407,"INCLINATION":51.902,"RA_OF_ASC_NODE":290.8783,"ARG_OF_PERICENTER":102.0736,"MEAN_ANOMALY":258.0264,"EPHEMERIS_TYPE":0,"NORAD_CAT_ID":65145,"ELEMENT_SET_NO":999,"REV_AT_EPOCH":5236,"BSTAR":0.0001014452,"MEAN_MOTION_DOT":0.00000552,"MEAN_MOTION_DDOT":0},{"OBJECT_NAME":"KUIPER-00108","OBJECT_ID":"2025-171Q","EPOCH":"2026-07-18T07:28:08.225184","CLASSIFICATION_TYPE":"U","MEAN_MOTION":14.79929929,"ECCENTRICITY":0.00005728,"INCLINATION":51.9045,"RA_OF_ASC_NODE":303.0264,"ARG_OF_PERICENTER":127.91,"MEAN_ANOMALY":232.1914,"EPHEMERIS_TYPE":0,"NORAD_CAT_ID":65146,"ELEMENT_SET_NO":999,"REV_AT_EPOCH":5220,"BSTAR":0.000090858735,"MEAN_MOTION_DOT":0.00000472,"MEAN_MOTION_DDOT":0},{"OBJECT_NAME":"KUIPER-00109","OBJECT_ID":"2025-171R","EPOCH":"2026-07-17T16:12:04.599072","CLASSIFICATION_TYPE":"U","MEAN_MOTION":14.79936729,"ECCENTRICITY":0.00003929,"INCLINATION":51.9033,"RA_OF_ASC_NODE":300.7823,"ARG_OF_PERICENTER":124.4322,"MEAN_ANOMALY":235.6678,"EPHEMERIS_TYPE":0,"NORAD_CAT_ID":65147,"ELEMENT_SET_NO":999,"REV_AT_EPOCH":5217,"BSTAR":0.00021152449,"MEAN_MOTION_DOT":0.00001392,"MEAN_MOTION_DDOT":0},{"OBJECT_NAME":"KUIPER-00110","OBJECT_ID":"2025-171S","EPOCH":"2026-07-18T07:16:29.593920","CLASSIFICATION_TYPE":"U","MEAN_MOTION":14.79924963,"ECCENTRICITY":0.00004515,"INCLINATION":51.9011,"RA_OF_ASC_NODE":310.5632,"ARG_OF_PERICENTER":113.2155,"MEAN_ANOMALY":246.8855,"EPHEMERIS_TYPE":0,"NORAD_CAT_ID":65148,"ELEMENT_SET_NO":999,"REV_AT_EPOCH":5208,"BSTAR":0.0002325853,"MEAN_MOTION_DOT":0.00001552,"MEAN_MOTION_DDOT":0},{"OBJECT_NAME":"KUIPER-00111","OBJECT_ID":"2025-171T","EPOCH":"2026-07-17T17:22:07.276512","CLASSIFICATION_TYPE":"U","MEAN_MOTION":14.79939822,"ECCENTRICITY":0.00004539,"INCLINATION":51.8991,"RA_OF_ASC_NODE":318.0022,"ARG_OF_PERICENTER":119.9633,"MEAN_ANOMALY":240.1375,"EPHEMERIS_TYPE":0,"NORAD_CAT_ID":65149,"ELEMENT_SET_NO":999,"REV_AT_EPOCH":5193,"BSTAR":0.00023342018,"MEAN_MOTION_DOT":0.00001559,"MEAN_MOTION_DDOT":0},{"OBJECT_NAME":"KUIPER-00112","OBJECT_ID":"2025-171U","EPOCH":"2026-07-18T07:35:54.360960","CLASSIFICATION_TYPE":"U","MEAN_MOTION":14.79929314,"ECCENTRICITY":0.00001576,"INCLINATION":51.9019,"RA_OF_ASC_NODE":297.9946,"ARG_OF_PERICENTER":108.7645,"MEAN_ANOMALY":251.3334,"EPHEMERIS_TYPE":0,"NORAD_CAT_ID":65150,"ELEMENT_SET_NO":999,"REV_AT_EPOCH":5226,"BSTAR":0.000048231549,"MEAN_MOTION_DOT":0.00000147,"MEAN_MOTION_DDOT":0}]}
